{
  "norad_id": 67110,
  "name": "STARLINK-35781",
  "history": [
    {
      "epoch": "2026-03-28T15:44:20.607648Z",
      "apogee_km": 484.9335710180685,
      "perigee_km": 481.04578219803443,
      "latitude_deg": -1.1783072526957336e-05,
      "longitude_deg": 0.008906274216279224,
      "height_km": 482.70552159776645,
      "semi_major_axis_km": 6861.126676608051,
      "eccentricity": 0.00028332,
      "inclination_deg": 43.0046,
      "raan_deg": 62.1679,
      "arg_perigee_deg": 271.8402,
      "mean_anomaly_deg": 88.2125,
      "mean_motion_rev_day": 15.27599844
    },
    {
      "epoch": "2026-03-28T23:35:07.986912Z",
      "apogee_km": 483.8201617677796,
      "perigee_km": 482.1542808068507,
      "latitude_deg": 4.300539387568009e-05,
      "longitude_deg": -119.86059309732177,
      "height_km": 483.41154805178473,
      "semi_major_axis_km": 6861.124221287315,
      "eccentricity": 0.0001214,
      "inclination_deg": 43.0018,
      "raan_deg": 60.318,
      "arg_perigee_deg": 218.9166,
      "mean_anomaly_deg": 141.1599,
      "mean_motion_rev_day": 15.27600664
    }
  ]
}